{
    "links": {
        "self": "http://www.neowsapp.com/rest/v1/neo/54017313?api_key=iIulBulltgU6a56xZRHN4H3l9WmuAYTsLGpBGhQ2"
    },
    "id": "54017313",
    "neo_reference_id": "54017313",
    "name": "(2020 KD7)",
    "designation": "2020 KD7",
    "nasa_jpl_url": "http://ssd.jpl.nasa.gov/sbdb.cgi?sstr=54017313",
    "absolute_magnitude_h": 20.08,
    "estimated_diameter": {
        "kilometers": {
            "estimated_diameter_min": 0.2561857545,
            "estimated_diameter_max": 0.5728487619
        },
        "meters": {
            "estimated_diameter_min": 256.1857544793,
            "estimated_diameter_max": 572.8487618827
        },
        "miles": {
            "estimated_diameter_min": 0.1591863984,
            "estimated_diameter_max": 0.355951608
        },
        "feet": {
            "estimated_diameter_min": 840.5044707257,
            "estimated_diameter_max": 1879.4251319352
        }
    },
    "is_potentially_hazardous_asteroid": false,
    "close_approach_data": [
        {
            "close_approach_date": "2020-06-28",
            "close_approach_date_full": "2020-Jun-28 16:32",
            "epoch_date_close_approach": 1593361920000,
            "relative_velocity": {
                "kilometers_per_second": "27.8216932959",
                "kilometers_per_hour": "100158.0958651666",
                "miles_per_hour": "62234.3457335531"
            },
            "miss_distance": {
                "astronomical": "0.2553229373",
                "lunar": "99.3206226097",
                "kilometers": "38195767.582223551",
                "miles": "23733749.4270089638"
            },
            "orbiting_body": "Earth"
        }
    ],
    "orbital_data": {
        "orbit_id": "3",
        "orbit_determination_date": "2020-06-22 06:39:34",
        "first_observation_date": "2020-05-28",
        "last_observation_date": "2020-06-21",
        "data_arc_in_days": 24,
        "observations_used": 23,
        "orbit_uncertainty": "8",
        "minimum_orbit_intersection": ".226123",
        "jupiter_tisserand_invariant": "3.598",
        "epoch_osculation": "2458999.5",
        "eccentricity": ".7406274273270895",
        "semi_major_axis": "1.830835280098005",
        "inclination": "18.5017621326559",
        "ascending_node_longitude": "61.19224092040603",
        "orbital_period": "904.841135073048",
        "perihelion_distance": ".4748684567393481",
        "perihelion_argument": "329.3852147002735",
        "aphelion_distance": "3.186802103456661",
        "perihelion_time": "2459078.156312018657",
        "mean_anomaly": "328.7058078715326",
        "mean_motion": ".3978598961141804",
        "equinox": "J2000",
        "orbit_class": {
            "orbit_class_type": "APO",
            "orbit_class_description": "Near-Earth asteroid orbits which cross the Earth’s orbit similar to that of 1862 Apollo",
            "orbit_class_range": "a (semi-major axis) > 1.0 AU; q (perihelion) < 1.017 AU"
        }
    },
    "is_sentry_object": false
}